IRIDIUM 116             
1 43072U 17083C   24210.59971224  .00000101  00000+0  28989-4 0  9994
2 43072  86.3936 249.7492 0002261  90.3977 269.7478 14.34218322345472
IRIDIUM 130             
1 43073U 17083D   24208.54471012  .00000193  00000+0  61908-4 0  9996
2 43073  86.3946 250.8170 0002364  90.5107 269.6360 14.34218728345122
IRIDIUM 151             
1 43074U 17083E   24210.61240030  .00000257  00000+0  84688-4 0  9993
2 43074  86.3938 249.7861 0002148  96.6224 263.5217 14.34216971345442
IRIDIUM 134             
1 43075U 17083F   24210.65044936  .00000366  00000+0  12348-3 0  9999
2 43075  86.3938 249.7689 0002323  87.2685 272.8777 14.34220631345412
IRIDIUM 137             
1 43076U 17083G   24210.66313734  .00000296  00000+0  98596-4 0  9998
2 43076  86.3940 249.8423 0001761  93.7703 266.3694 14.34217858345481
IRIDIUM 141             
1 43077U 17083H   24210.65679761  .00000101  00000+0  28996-4 0  9995
2 43077  86.3936 249.7146 0002478  96.0165 264.1313 14.34217506345486
IRIDIUM 153             
1 43078U 17083J   24210.95781046  .00000134  00000+0  40744-4 0  9990
2 43078  86.3964 218.0632 0002729 101.5443 258.6059 14.34217744346634
IRIDIUM 131             
1 43079U 17083K   24209.17897278  .00000043  00000+0  84075-5 0  9993
2 43079  86.3943 250.4729 0002183  94.9558 265.1887 14.34217112345208
